     2.10           NAVIGATION DATA                         RINEX VERSION / TYPE
SPIDER V4,0,0,3554                      2015 03 28 00:00    PGM / RUN BY / DATE 
   2.6077D-08  7.4506D-09 -1.1921D-07  0.0000D+00           ION ALPHA           
   1.2902D+05  0.0000D+00 -2.6214D+05  2.6214D+05           ION BETA            
    0.000000000000D+00 3.552713678801D-15   589824     1837 DELTA-UTC: A0,A1,T,W
    16                                                      LEAP SECONDS        
                                                            END OF HEADER       
 2 15 03 25 20 00  0.0 5.557551048696D-04 2.273736754432D-12 0.000000000000D+00
    2.000000000000D+01-2.468750000000D+00 5.020209137285D-09-2.307962053323D+00
   -1.583248376846D-07 1.453664258588D-02 6.703659892082D-06 5.153786352158D+03
    3.312000000000D+05 8.940696716309D-08-8.361797291678D-01-1.303851604462D-07
    9.405275033286D-01 2.386250000000D+02-2.294246445853D+00-8.115694782873D-09
    3.689439309618D-10 1.000000000000D+00 1.837000000000D+03 0.000000000000D+00
    2.000000000000D+00 0.000000000000D+00-2.048909664154D-08 2.000000000000D+01
    3.312000000000D+05 0.000000000000D+00
 3 15 03 25 10 00  0.0 2.700840122998D-04 1.591615728103D-11 0.000000000000D+00
    7.400000000000D+01-8.718750000000D+00 4.707338963073D-09 3.625821451960D-01
   -5.252659320831D-07 9.401637362316D-04 8.732080459595D-06 5.153718357086D+03
    2.952000000000D+05-3.166496753693D-08 2.406015868218D-01 1.862645149231D-09
    9.597854549395D-01 2.074375000000D+02-2.841367011164D+00-8.046049160271D-09
   -4.253748742133D-10 1.000000000000D+00 1.837000000000D+03 0.000000000000D+00
    2.800000000000D+00 0.000000000000D+00 1.396983861923D-09 7.400000000000D+01
    2.952000000000D+05 0.000000000000D+00
 4 15 03 25 23 59 28.0-9.739771485329D-06-7.958078640513D-13 0.000000000000D+00
    5.000000000000D+00-2.468750000000D+00 5.281648451927D-09-9.541624498845D-01
   -7.450580596924D-08 1.111251406837D-02 6.970018148422D-06 5.153709651947D+03
    3.455680000000D+05 5.587935447693D-08-8.209435514798D-01 2.905726432800D-07
    9.395852026837D-01 2.329062500000D+02 1.052359278188D+00-8.533569406666D-09
    1.039329039498D-10 1.000000000000D+00 1.837000000000D+03 0.000000000000D+00
    2.000000000000D+00 0.000000000000D+00-6.519258022308D-09 5.000000000000D+00
    3.455680000000D+05 0.000000000000D+00
 5 15 03 25 14 00  0.0-2.623423933983D-04 4.888534022029D-12 0.000000000000D+00
    2.000000000000D+01-1.328125000000D+01 5.116641776937D-09-3.072401147394D+00
   -7.096678018570D-07 4.016791004688D-03 8.635222911835D-06 5.153791313171D+03
    3.096000000000D+05-4.656612873077D-08 2.342856267310D-01-6.146728992462D-08
    9.470318653242D-01 2.071250000000D+02 4.055559533305D-01-8.146053609437D-09
   -3.028697570517D-10 1.000000000000D+00 1.837000000000D+03 0.000000000000D+00
    2.000000000000D+00 0.000000000000D+00-1.071020960808D-08 2.000000000000D+01
    3.096000000000D+05 0.000000000000D+00
 6 15 03 25 18 00  0.0 1.182449050248D-04 1.034550223267D-11 0.000000000000D+00
    5.900000000000D+01-1.687500000000D+00 4.624478133763D-09-1.754829165347D+00
   -4.097819328308D-08 2.356242621318D-04 6.834045052528D-06 5.153715469360D+03
    3.240000000000D+05-3.539025783539D-08-8.084494937722D-01 2.235174179077D-08
    9.618199541303D-01 2.481875000000D+02 3.035344848742D+00-8.106765925220D-09
    2.746542993037D-10 1.000000000000D+00 1.837000000000D+03 0.000000000000D+00
    2.000000000000D+00 0.000000000000D+00 4.656612873077D-09 5.900000000000D+01
    3.240000000000D+05 0.000000000000D+00
 7 15 03 25 14 00  0.0 4.503871314228D-04 2.842170943040D-12 0.000000000000D+00
    6.000000000000D+01 3.753125000000D+01 4.506973461105D-09-2.956757462988D-01
    1.806765794754D-06 8.119064616039D-03 3.643333911896D-06 5.153729169846D+03
    3.096000000000D+05 1.117587089539D-07 2.360392079073D+00 4.470348358154D-08
    9.707409456111D-01 3.133750000000D+02-2.756731932310D+00-8.424994035749D-09
   -1.057186907460D-10 1.000000000000D+00 1.837000000000D+03 0.000000000000D+00
    2.000000000000D+00 0.000000000000D+00-1.117587089539D-08 6.000000000000D+01
    3.096000000000D+05 0.000000000000D+00
 9 15 03 25 11 59 44.0-1.216437667608D-04-9.322320693173D-12 0.000000000000D+00
    2.000000000000D+01 8.081250000000D+01 4.454471458359D-09 9.560289680439D-01
    3.980472683907D-06 4.344141343608D-04 9.782612323761D-06 5.153635423660D+03
    3.023840000000D+05-2.793967723846D-08 1.284127304828D+00-9.313225746155D-09
    9.577897069858D-01 1.861562500000D+02 2.327897491074D+00-8.017119412784D-09
   -1.592923432048D-10 1.000000000000D+00 1.837000000000D+03 0.000000000000D+00
    2.000000000000D+00 0.000000000000D+00 4.656612873077D-10 2.000000000000D+01
    3.023840000000D+05 0.000000000000D+00
10 15 03 25 12 00  0.0-1.684506423771D-04-1.364242052659D-12 0.000000000000D+00
    1.010000000000D+02-1.646875000000D+01 5.131999269992D-09 2.532170722892D+00
   -1.039355993271D-06 1.459635829087D-02 8.793547749519D-06 5.153670042038D+03
    3.024000000000D+05-3.725290298462D-09 2.497950584983D-01-2.682209014893D-07
    9.418233064240D-01 1.979375000000D+02 9.255848908745D-01-8.027477349515D-09
   -3.493002553867D-10 1.000000000000D+00 1.837000000000D+03 0.000000000000D+00
    2.000000000000D+00 0.000000000000D+00-3.259629011154D-09 1.010000000000D+02
    3.024000000000D+05 0.000000000000D+00
11 15 03 24 08 00  0.0-5.664760246873D-04-2.614797267597D-12 0.000000000000D+00
    5.600000000000D+01 1.296875000000D+01 6.491341686399D-09 2.867596620304D+00
    5.438923835754D-07 1.564411923755D-02 5.250796675682D-06 5.153723104477D+03
    2.016000000000D+05 2.048909664154D-07-1.145059259103D+00-2.309679985046D-07
    8.924032580291D-01 2.378125000000D+02 1.389249945734D+00-8.797152339923D-09
    2.632252471546D-10 1.000000000000D+00 1.837000000000D+03 0.000000000000D+00
    2.000000000000D+00 0.000000000000D+00-1.210719347000D-08 5.600000000000D+01
    2.016000000000D+05 0.000000000000D+00
12 15 03 25 22 00  0.0 2.795299515128D-04 3.069544618484D-12 0.000000000000D+00
    8.900000000000D+01-5.646875000000D+01 3.902305589776D-09-2.870880455923D+00
   -3.006309270859D-06 5.454259575345D-03 6.342306733131D-06 5.153719509125D+03
    3.384000000000D+05-8.940696716309D-08-2.855734246234D+00-1.788139343262D-07
    9.897054695025D-01 2.684687500000D+02 5.382782978403D-01-7.835326165662D-09
   -1.910793884230D-10 1.000000000000D+00 1.837000000000D+03 0.000000000000D+00
    2.000000000000D+00 0.000000000000D+00-1.257285475731D-08 8.900000000000D+01
    3.384000000000D+05 0.000000000000D+00
13 15 03 25 16 00  0.0-9.979354217649D-05-3.410605131648D-12 0.000000000000D+00
    1.030000000000D+02 8.809375000000D+01 4.195174874155D-09 1.510755102545D+00
    4.453584551811D-06 5.325725302100D-03 9.272247552872D-06 5.153689840317D+03
    3.168000000000D+05 8.940696716309D-08 1.398200817316D+00-6.519258022308D-08
    9.744808386270D-01 2.064375000000D+02 2.066726331013D+00-7.836398197014D-09
   -3.785871963147D-11 1.000000000000D+00 1.837000000000D+03 0.000000000000D+00
    2.000000000000D+00 0.000000000000D+00-1.164153218269D-08 1.030000000000D+02
    3.168000000000D+05 0.000000000000D+00
14 15 03 25 19 59 44.0 7.575377821922D-05-2.728484105319D-12 0.000000000000D+00
    1.800000000000D+01 7.900000000000D+01 4.397683106561D-09-8.312030266910D-01
    4.194676876068D-06 7.893578382209D-03 9.465962648392D-06 5.153578552246D+03
    3.311840000000D+05-7.636845111847D-08 1.363897073639D+00 1.322478055954D-07
    9.669961927814D-01 2.033125000000D+02-1.975079716947D+00-8.055335953827D-09
   -1.250052058394D-11 1.000000000000D+00 1.837000000000D+03 0.000000000000D+00
    2.000000000000D+00 0.000000000000D+00-9.313225746155D-09 1.800000000000D+01
    3.311840000000D+05 0.000000000000D+00
15 15 03 25 18 00  0.0-2.397475764155D-04-2.160049916711D-12 0.000000000000D+00
    8.900000000000D+01 7.550000000000D+01 5.106998379745D-09-2.510466909766D+00
    3.661960363388D-06 7.107715122402D-03 9.840354323387D-06 5.153618724823D+03
    3.240000000000D+05-2.607703208923D-08 1.241853826299D+00-2.067536115646D-07
    9.337170169473D-01 1.769687500000D+02 3.895850250372D-01-8.247129201777D-09
   -4.143029669335D-11 1.000000000000D+00 1.837000000000D+03 0.000000000000D+00
    2.000000000000D+00 0.000000000000D+00-1.071020960808D-08 8.900000000000D+01
    3.240000000000D+05 0.000000000000D+00
16 15 03 25 23 59 44.0-1.447638496757D-04 3.524291969370D-12 0.000000000000D+00
    2.000000000000D+01-6.215625000000D+01 4.028025024638D-09 2.323966548272D+00
   -3.164634108543D-06 8.226201869547D-03 6.729736924171D-06 5.153772314072D+03
    3.455840000000D+05-2.626329660416D-07-2.837140864659D+00 5.960464477539D-08
    9.902548961826D-01 2.681562500000D+02 2.600509378568D-01-7.869613405376D-09
   -1.403629851238D-10 1.000000000000D+00 1.837000000000D+03 0.000000000000D+00
    2.000000000000D+00 0.000000000000D+00-1.024454832077D-08 2.000000000000D+01
    3.455840000000D+05 0.000000000000D+00
17 15 03 25 17 59 44.0-1.629311591387D-04-2.046363078989D-12 0.000000000000D+00
    1.000000000000D+01-2.106250000000D+01 4.124100172476D-09-1.739345919813D+00
   -1.138076186180D-06 1.009878853802D-02 9.484589099884D-06 5.153736873627D+03
    3.239840000000D+05 2.905726432800D-07-1.809669963058D+00-2.793967723846D-08
    9.715390317918D-01 2.027812500000D+02-2.016911247923D+00-7.730679207896D-09
    1.989368531019D-10 1.000000000000D+00 1.837000000000D+03 0.000000000000D+00
    2.000000000000D+00 0.000000000000D+00-1.071020960808D-08 1.000000000000D+01
    3.239840000000D+05 0.000000000000D+00
